[{"OBJECT_NAME":"STARLINK-5539","OBJECT_ID":"2023-028G","EPOCH":"2026-03-09T20:34:33.735360","MEAN_MOTION":14.98332394,"ECCENTRICITY":0.00025824,"INCLINATION":69.9992,"RA_OF_ASC_NODE":244.0974,"ARG_OF_PERICENTER":271.1358,"MEAN_ANOMALY":88.9505,"EPHEMERIS_TYPE":0,"CLASSIFICATION_TYPE":"U","NORAD_CAT_ID":55747,"ELEMENT_SET_NO":999,"REV_AT_EPOCH":16606,"BSTAR":3.4604831e-5,"MEAN_MOTION_DOT":3.2e-6,"MEAN_MOTION_DDOT":0},{"OBJECT_NAME":"UM5-RIBAT","OBJECT_ID":"2024-149CQ","EPOCH":"2026-03-09T19:05:41.327808","MEAN_MOTION":15.00468196,"ECCENTRICITY":0.00032721,"INCLINATION":97.6776,"RA_OF_ASC_NODE":147.9138,"ARG_OF_PERICENTER":87.0399,"MEAN_ANOMALY":273.1199,"EPHEMERIS_TYPE":0,"CLASSIFICATION_TYPE":"U","NORAD_CAT_ID":60554,"ELEMENT_SET_NO":999,"REV_AT_EPOCH":8528,"BSTAR":0.00037992942,"MEAN_MOTION_DOT":4.725e-5,"MEAN_MOTION_DDOT":0}]
